     2.100          NAVIGATION                              RINEX VERSION / TYPE
fic2rin                                 04/03/2013 00:35:48 PGM / RUN BY / DATE
                                                            END OF HEADER
 5 13  4  2 20  0  0.0 -.390231143683D-03 -.136424205266D-11  .000000000000D+00
     .550000000000D+02  .665625000000D+01  .495199198463D-08 -.494944608932D+00
     .471249222755D-06  .305549660698D-02  .791810452938D-05  .515358356857D+04
     .244800000000D+06  .428408384323D-07  .581933170412D+00 -.279396772385D-07
     .949284236905D+00  .217718750000D+03  .302925747399D+00 -.827034449304D-08
    -.195365280605D-09  .100000000000D+01  .173400000000D+04  .000000000000D+00
     .240000000000D+01  .000000000000D+00 -.102445483208D-07  .550000000000D+02
     .237606000000D+06  .400000000000D+01
 6 13  4  2 20  0  0.0  .289768446237D-03 -.154614099301D-10  .000000000000D+00
     .130000000000D+02 -.462812500000D+02  .484377319117D-08 -.584174577422D+00
    -.249966979027D-05  .793149101082D-02  .952556729317D-05  .515368194199D+04
     .244800000000D+06  .409781932831D-07 -.157269153131D+01 -.270083546638D-06
     .940326527643D+00  .187968750000D+03 -.359426708434D+00 -.821069915143D-08
     .100361323309D-09  .100000000000D+01  .173400000000D+04  .000000000000D+00
     .240000000000D+01  .000000000000D+00 -.512227416039D-08  .130000000000D+02
     .237606000000D+06  .400000000000D+01
 7 13  4  2 20  0  0.0  .198261346668D-03  .432009983342D-11  .000000000000D+00
     .400000000000D+02  .501562500000D+02  .448125809096D-08  .227408599814D+01
     .262632966042D-05  .616391247604D-02  .427477061749D-05  .515370135117D+04
     .244800000000D+06 -.154599547386D-06  .269848898255D+01  .447034835815D-07
     .975673563052D+00  .307687500000D+03 -.293455429448D+01 -.825784397235D-08
     .100361323309D-09  .100000000000D+01  .173400000000D+04  .000000000000D+00
     .240000000000D+01  .000000000000D+00 -.107102096081D-07  .400000000000D+02
     .237606000000D+06  .400000000000D+01
 8 13  4  2 20  0  0.0  .542914494872D-05  .113686837722D-12  .000000000000D+00
     .170000000000D+02  .404062500000D+02  .403159650361D-08  .172650960218D+01
     .222772359848D-05  .127831941936D-01  .447593629360D-05  .515359067726D+04
     .244800000000D+06 -.763684511185D-07  .278851224617D+01  .212341547012D-06
     .998367976525D+00  .316656250000D+03 -.287740447076D+01 -.811105214359D-08
    -.396445084958D-10  .100000000000D+01  .173400000000D+04  .000000000000D+00
     .240000000000D+01  .000000000000D+00 -.419095158577D-08  .170000000000D+02
     .237606000000D+06  .400000000000D+01
 9 13  4  2 20  0  0.0  .231272540987D-03  .261479726760D-11  .000000000000D+00
     .330000000000D+02  .580000000000D+02  .411374278247D-08  .261528772141D+01
     .295042991638D-05  .172649690649D-01  .465288758278D-05  .515280640030D+04
     .244800000000D+06  .204890966415D-06  .267490723612D+01 -.216066837311D-06
     .984309728771D+00  .294562500000D+03  .164370856763D+01 -.788925719066D-08
    -.117862052285D-10  .100000000000D+01  .173400000000D+04  .000000000000D+00
     .240000000000D+01  .000000000000D+00 -.558793544769D-08  .330000000000D+02
     .237606000000D+06  .400000000000D+01
10 13  4  2 20  0  0.0 -.753928907216D-04 -.125055521494D-11  .000000000000D+00
     .920000000000D+02  .837500000000D+01  .515914347046D-08 -.220611337919D+00
     .569969415665D-06  .123500343179D-01  .809878110886D-05  .515361675644D+04
     .244800000000D+06  .689178705215D-07  .601676924933D+00  .141561031342D-06
     .944108400556D+00  .216906250000D+03  .798398475610D+00 -.849499670785D-08
    -.228580949885D-09  .100000000000D+01  .173400000000D+04  .000000000000D+00
     .240000000000D+01  .000000000000D+00 -.232830643654D-08  .920000000000D+02
     .237606000000D+06  .400000000000D+01
11 13  4  2 20  0  0.0 -.368523411453D-03 -.375166564481D-11  .000000000000D+00
     .560000000000D+02  .128125000000D+01  .614168439724D-08  .247605782575D+01
    -.204890966415D-07  .138680890668D-01  .779703259468D-05  .515368235397D+04
     .244800000000D+06  .162050127983D-06 -.755015950108D+00 -.128522515297D-06
     .888804415186D+00  .188281250000D+03  .115467378640D+01 -.861785896842D-08
     .374658463172D-09  .100000000000D+01  .173400000000D+04  .000000000000D+00
     .240000000000D+01  .000000000000D+00 -.116415321827D-07  .560000000000D+02
     .237606000000D+06  .400000000000D+01
12 13  4  2 20  0  0.0  .126242637634D-03  .204636307899D-11  .000000000000D+00
     .570000000000D+02 -.630000000000D+02  .407981279772D-08  .198817972556D+01
    -.331178307533D-05  .444274931215D-02  .565126538277D-05  .515359939766D+04
     .244800000000D+06 -.298023223877D-07 -.252677775585D+01  .540167093277D-07
     .983587341287D+00  .283093750000D+03  .194866986021D+00 -.798783272530D-08
    -.182150444440D-09  .100000000000D+01  .173400000000D+04  .000000000000D+00
     .240000000000D+01  .000000000000D+00 -.121071934700D-07  .570000000000D+02
     .237606000000D+06  .400000000000D+01
13 13  4  2 20  0  0.0  .132264569402D-03 -.352429196937D-11  .000000000000D+00
     .970000000000D+02  .925625000000D+02  .402302471798D-08 -.154043823556D+01
     .481866300106D-05  .513096537907D-02  .944361090660D-05  .515378058052D+04
     .244800000000D+06 -.912696123123D-07  .173078230020D+01  .335276126862D-07
     .981899066529D+00  .215031250000D+03  .207166015829D+01 -.783711216146D-08
    -.103575742917D-10  .100000000000D+01  .173400000000D+04  .000000000000D+00
     .340000000000D+01  .000000000000D+00 -.111758708954D-07  .970000000000D+02
     .237606000000D+06  .400000000000D+01
14 13  4  2 20  0  0.0  .221073627472D-03  .000000000000D+00  .000000000000D+00
     .880000000000D+02  .598437500000D+02  .419231748399D-08 -.142142604184D+01
     .326894223690D-05  .673342577647D-02  .848248600960D-05  .515373178291D+04
     .244800000000D+06  .119209289551D-06  .170190632492D+01  .124797224998D-06
     .974600347331D+00  .223906250000D+03 -.202741429899D+01 -.786497046473D-08
    -.471448209139D-10  .100000000000D+01  .173400000000D+04  .000000000000D+00
     .240000000000D+01  .000000000000D+00 -.884756445885D-08  .880000000000D+02
     .237606000000D+06  .400000000000D+01
15 13  4  2 20  0  0.0 -.113797374070D-03 -.136424205266D-11  .000000000000D+00
     .109000000000D+03  .590312500000D+02  .497056418681D-08 -.193389508249D+01
     .283494591713D-05  .538461282849D-02  .932440161705D-05  .515373806763D+04
     .244800000000D+06 -.931322574615D-08  .160377848930D+01 -.856816768646D-07
     .941269651911D+00  .190031250000D+03  .162355276029D+00 -.825212944860D-08
    -.421446126351D-10  .100000000000D+01  .173400000000D+04  .000000000000D+00
     .240000000000D+01  .000000000000D+00 -.102445483208D-07  .109000000000D+03
     .237606000000D+06  .400000000000D+01
16 13  4  2 20  0  0.0 -.252607744187D-03  .000000000000D+00  .000000000000D+00
     .840000000000D+02 -.708125000000D+02  .408731311014D-08 -.216665044717D+00
    -.382401049137D-05  .708893430419D-02  .634789466858D-05  .515361092949D+04
     .244800000000D+06  .763684511185D-07 -.250843227452D+01  .167638063431D-07
     .984292760384D+00  .268437500000D+03  .590848503326D-01 -.805783564120D-08
    -.214294640518D-09  .100000000000D+01  .173400000000D+04  .000000000000D+00
     .240000000000D+01  .000000000000D+00 -.977888703346D-08  .840000000000D+02
     .237606000000D+06  .400000000000D+01
17 13  4  2 20  0  0.0  .339485704899D-04 -.386535248253D-11  .000000000000D+00
     .680000000000D+02 -.578437500000D+02  .430053627746D-08 -.127150232180D+01
    -.298395752907D-05  .829726876691D-02  .100322067738D-04  .515360940933D+04
     .244800000000D+06  .245869159698D-06 -.147092163678D+01  .122934579849D-06
     .964722177328D+00  .188937500000D+03 -.220242386030D+01 -.790175771135D-08
     .155720772109D-09  .100000000000D+01  .173400000000D+04  .000000000000D+00
     .240000000000D+01  .000000000000D+00 -.102445483208D-07  .680000000000D+02
     .237606000000D+06  .400000000000D+01
18 13  4  2 20  0  0.0  .246948096901D-03  .193267624127D-11  .000000000000D+00
     .108000000000D+03  .506250000000D+01  .554094508832D-08  .216980875564D+00
     .273808836937D-06  .139581630938D-01  .783428549767D-05  .515376858711D+04
     .244800000000D+06 -.173225998878D-06  .585678916563D+00  .173225998878D-06
     .927899075132D+00  .214218750000D+03 -.211941714385D+01 -.873286375883D-08
    -.233581158164D-09  .100000000000D+01  .173400000000D+04  .000000000000D+00
     .240000000000D+01  .000000000000D+00 -.107102096081D-07  .108000000000D+03
     .237606000000D+06  .400000000000D+01
19 13  4  2 20  0  0.0 -.361575279385D-03 -.318323145621D-11  .000000000000D+00
     .150000000000D+03 -.437500000000D+02  .424267672452D-08 -.193677375710D+01
    -.233761966228D-05  .906956603285D-02  .104848295450D-04  .515368626213D+04
     .244800000000D+06 -.117346644402D-06 -.141879206661D+01 -.745058059692D-07
     .961981024337D+00  .178187500000D+03  .282930310989D+00 -.779711049523D-08
     .339299847486D-09  .100000000000D+01  .173400000000D+04  .000000000000D+00
     .340000000000D+01  .000000000000D+00 -.149011611938D-07  .150000000000D+03
     .237606000000D+06  .400000000000D+01
20 13  4  2 20  0  0.0  .910758972168D-04  .181898940355D-11  .000000000000D+00
     .760000000000D+02  .690625000000D+01  .545522723211D-08  .785125997729D+00
     .186264514923D-06  .551237969194D-02  .782869756222D-05  .515376645279D+04
     .244800000000D+06 -.447034835815D-07  .532191775969D+00  .447034835815D-07
     .928636217609D+00  .209312500000D+03  .129563542743D+01 -.855821362681D-08
    -.235009789101D-09  .100000000000D+01  .173400000000D+04  .000000000000D+00
     .240000000000D+01  .000000000000D+00 -.791624188423D-08  .760000000000D+02
     .237606000000D+06  .400000000000D+01
